<!DOCTYPE html PUBLIC "-//W3C//DTD XHTML 1.0 Strict//EN" "http://www.w3.org/TR/xhtml1/DTD/xhtml1-strict.dtd">
<html xmlns="http://www.w3.org/1999/xhtml">
<head>
<meta http-equiv="Content-Type" content="text/html; charset=iso-8859-1"/>
<title>404 - File Not Found.</title>
<style type="text/css">
<!--
body{margin:0;font-size:.7em;font-family:Verdana, Arial, Helvetica, sans-serif;background:#EEEEEE;}
fieldset{padding:0 15px 10px 15px;}
h1{font-size:2.4em;margin:0;color:#FFF;}
h2{font-size:1.7em;margin:0;color:#CC0000;}
h3{font-size:1.2em;margin:10px 0 0 0;color:#000000;}
#header{width:96%;margin:0 0 0 0;padding:6px 2% 6px 2%;font-family:"trebuchet MS", Verdana, sans-serif;color:#FFF;
background-color:#555555;}
#content{margin:0 0 0 2%;position:relative;}
.content-container{background:#FFF;width:96%;margin-top:8px;padding:10px;position:relative;}
-->
</style>
</head>
<body>
<div id="header"><h1>Server Error</h1></div>
<div id="content">
 <div class="content-container"><fieldset>
  <h2>404 - File Not Found.</h2>
  <h3>File not found for celestrak.org/NORAD/elements/active.txt.</h3>
  <h3>Please contact <a href="mailto:ts.kelso@celestrak.org">ts.kelso@celestrak.org</a> if you have other questions.</h3>
 </fieldset></div>
</div>
</body>
</html>
ZHUHAI-1 02 (CAS-4B)    
1 42759U 17034B   24021.12025069  .00016977  00000+0  72156-3 0  9999
2 42759  43.0147 339.7253 0009713  84.8091 275.3867 15.22743737364798
ZHUHAI-1 01 (CAS-4A)    
1 42761U 17034D   24021.13235281  .00017007  00000+0  72128-3 0  9996
2 42761  43.0133 338.1186 0010599  86.6588 273.5474 15.22807910364809
MAX VALIER SAT          
1 42778U 17036P   24021.08427724  .00054709  00000+0  82595-3 0  9994
2 42778  97.1292  57.5210 0006356  41.2584 318.9149 15.54552198366380
RADFXSAT (FOX-1B)       
1 43017U 17073E   24021.13915294  .00009383  00000+0  61084-3 0  9990
2 43017  97.6012 262.0277 0222546  67.4198 295.0401 14.89969877333596
FOX-1D (AO-92)          
1 43137U 18004AC  24020.71065676  .00582073  14510-3  13814-2 0  9995
2 43137  97.2910 111.8125 0003856 317.1478  42.9497 15.96712457336240
DIWATA-2B               
1 43678U 18084H   24021.14275135  .00002574  00000+0  24426-3 0  9994
2 43678  98.0479 175.0829 0009630 154.7221 205.4471 14.94433092284803
ES'HAIL 2               
1 43700U 18090A   24020.89146448  .00000148  00000+0  00000+0 0  9995
2 43700   0.0169  82.8616 0002727 256.1918 127.4000  1.00273209 18875
FOX-1CLIFF (AO-95)      
1 43770U 18099N   24020.70606839  .00009150  00000+0  68227-3 0  9997
2 43770  97.5713  81.8766 0015384 144.8277 215.3967 15.03002332280243
ITASAT                  
1 43786U 18099AE  24021.13490228  .00006700  00000+0  51412-3 0  9991
2 43786  97.5310  82.6800 0019168 129.0711 231.2223 15.01962971280337
JY1SAT (JO-97)          
1 43803U 18099AX  24021.10339526  .00009684  00000+0  69936-3 0  9995
2 43803  97.5455  83.2684 0012145  88.8053 271.4565 15.04228824280412
UWE-4                   
1 43880U 18111E   24020.72820875  .00010368  00000+0  71313-3 0  9997
2 43880  97.6236 287.8642 0018431 148.2973 211.9368 15.05960163277064
JAISAT-1                
1 44419U 19038F   24020.96692088  .00068988  00000+0  12992-2 0  9992
2 44419  97.6839  17.6287 0007470 224.6452 135.4197 15.48259767252003
DUCHIFAT-3              
1 44854U 19089C   24020.90533766  .00013995  00000+0  81768-3 0  9998
2 44854  36.9583 225.5134 0009544 314.3548  45.6415 15.11258898225724
TIANYAN 01              
1 44881U 19093C   24021.18763219  .00001762  00000+0  22184-3 0  9998
2 44881  97.8434 100.8032 0015942  87.0365 273.2673 14.83192361221100
RS-44 & BREEZE-KM R/B   
1 44909U 19096E   24020.88046530  .00000056  00000+0  17683-3 0  9991
2 44909  82.5201 203.2943 0218006  38.1964 323.4359 12.79726169190006
BY70-2                  
1 45857U 20042B   24021.14071376  .00053072  00000+0  37593-2 0  9990
2 45857  97.9198 108.6499 0007363 350.4801   9.6284 15.04577775192134
SALSAT                  
1 46495U 20068K   24020.81553648  .00008362  00000+0  50934-3 0  9994
2 46495  97.7975 336.8696 0016382  97.9959 262.3129 15.10539985181891
RADFXSAT-2 (AO-109)     
1 47311U 21002C   24021.08516217  .00113308  00000+0  12713-2 0  9991
2 47311  60.6733 289.6602 0027405  67.1360 293.2635 15.61526601168027
UVSQ-SAT                
1 47438U 21006AB  24021.12331786  .00036468  00000+0  10899-2 0  9990
2 47438  97.3537  81.0923 0008611  34.7852 325.3953 15.34458704165946
LEDSAT                  
1 49069U 21073D   24021.12328744  .00015726  00000+0  73893-3 0  9994
2 49069  97.4584  93.7501 0022816  83.3356 277.0474 15.19455798133933
XW-3 (CAS-9)            
1 50466U 21131B   24021.13948501  .00001023  00000+0  34372-3 0  9996
2 50466  98.5379 106.9095 0003952 194.7437 165.3636 14.39312763108703
TEVEL-3                 
1 50988U 22002E   24021.13880344  .00051856  00000+0  13217-2 0  9996
2 50988  97.4050  93.1933 0005246 172.5887 187.5437 15.39356911112114
TEVEL-8                 
1 50989U 22002F   24021.16859741  .00053719  00000+0  13731-2 0  9998
2 50989  97.4068  93.3053 0005146 170.7670 189.3671 15.39260997112116
TEVEL-5                 
1 50998U 22002Q   24021.18173807  .00057359  00000+0  13808-2 0  9991
2 50998  97.4044  93.9843 0005970 165.7545 194.3871 15.41067092112171
TEVEL-6                 
1 50999U 22002R   24021.18156812  .00057849  00000+0  13938-2 0  9997
2 50999  97.4043  93.9709 0005970 165.5310 194.6109 15.41038599112177
TEVEL-1                 
1 51013U 22002AF  24021.15731781  .00053066  00000+0  13561-2 0  9995
2 51013  97.4043  93.1113 0005041 172.2506 187.8819 15.39271486112114
TEVEL-7                 
1 51062U 22002CG  24021.16477432  .00054057  00000+0  13789-2 0  9993
2 51062  97.4062  93.2718 0005168 171.3737 188.7598 15.39321921112111
TEVEL-4                 
1 51063U 22002CH  24021.18324100  .00052864  00000+0  13551-2 0  9990
2 51063  97.4061  93.2394 0005144 170.3421 189.7925 15.39177594112114
TEVEL-2                 
1 51069U 22002CP  24021.13910693  .00051615  00000+0  13149-2 0  9995
2 51069  97.4047  93.1605 0005209 172.2944 187.8383 15.39373863112115
GREENCUBE               
1 53106U 22080B   24017.99484582 -.00000003  00000+0  00000+0 0  9992
2 53106  70.1336 245.0570 0008291 138.2840 221.8452  6.42557672 35552
CYCLOPS (RS29S)         
1 53373U 22096D   24021.15837359  .00233871  00000+0  16781-2 0  9998
2 53373  97.3948 298.6355 0005827 100.1511 260.0410 15.72955314 81477
MONITOR-1 (RS32S)       
1 53374U 22096E   24021.15768613  .00177445  00000+0  15967-2 0  9994
2 53374  97.3894 297.7040 0005901  96.5287 263.6646 15.67643419 81429
KUZBASS-300 (RS34S)     
1 53375U 22096F   24021.17021467  .00090198  00000+0  13222-2 0  9997
2 53375  97.3988 295.8848 0004634  86.4917 273.6867 15.55230986 81298
UTMN (RS23S)            
1 53376U 22096G   24021.15870425  .00098689  00000+0  13197-2 0  9996
2 53376  97.3965 296.3251 0004646  92.2795 267.8993 15.57690165 81320
MIET-AIS (RS28S)        
1 53377U 22096H   24021.15056808  .00070096  00000+0  11262-2 0  9991
2 53377  97.4004 295.4952 0003984  86.6620 273.5089 15.52778599 81268
KAI-1 (RS26S)           
1 53378U 22096J   24021.16048107  .00051688  00000+0  98037-3 0  9998
2 53378  97.4044 294.4857 0003799  86.4348 273.7337 15.48152034 81190
ISOI (RS19S)            
1 53381U 22096M   24021.14513908  .00069360  00000+0  10629-2 0  9992
2 53381  97.4020 296.0804 0003455  63.3651 296.7956 15.54095808 81305
CUBESX-HSE-2 (RS21S)    
1 53383U 22096P   24021.12418227  .00093319  00000+0  12673-2 0  9992
2 53383  97.3976 296.5466 0003767  56.8047 303.3569 15.57298654 81332
SIREN (RS30S)           
1 53384U 22096Q   24021.12999776  .00058188  00000+0  99598-3 0  9993
2 53384  97.4018 295.3882 0003337  50.2376 309.9169 15.51054352 81254
GEOSCAN-EDELVEIS (RS20S)
1 53385U 22096R   24021.12741587  .00356342  00000+0  18287-2 0  9997
2 53385  97.3905 299.9921 0004545  77.5017 282.6759 15.80290682 81598
CAS-5A (FO-118)         
1 54684U 22167C   24021.16008724  .00024548  00000+0  10886-2 0  9999
2 54684  97.5838 163.7272 0011357 305.0225  54.9944 15.21531803 61732
STRATOSAT-TK 1 (RS52S)  
1 57167U 23091B   24021.16238763  .00015153  00000+0  99581-3 0  9995
2 57167  97.6366  75.0330 0015515 265.8035  94.1419 15.07598655 31226
UMKA 1 (RS40S)          
1 57172U 23091G   24021.14439612  .00006786  00000+0  47487-3 0  9995
2 57172  97.6374  74.7490 0015843 265.6568  94.2849 15.05492143 31206
CUBESX-HSE 3 (RS42S)    
1 57178U 23091N   24021.12496315  .00008528  00000+0  58655-3 0  9997
2 57178  97.6404  74.8754 0016574 259.8375 100.0983 15.06049462 31201
MONITOR-4 (RS57S)       
1 57182U 23091S   24021.14398431  .00008375  00000+0  57997-3 0  9992
2 57182  97.6397  74.8191 0016930 260.9504  98.9807 15.05794590 31203
MONITOR-2 (RS39S)       
1 57184U 23091U   24021.13413011  .00005063  00000+0  35195-3 0  9992
2 57184  97.6403  74.9977 0012920 253.4352 106.5455 15.05897503 31213
SVYATOBOR 1 (RS60S)     
1 57187U 23091X   24021.13703437  .00007693  00000+0  52079-3 0  9990
2 57187  97.6404  75.1505 0012625 251.1583 108.8275 15.06720776 31224
VIZARD-METEO (RS38S)    
1 57189U 23091Z   24021.13132915  .00009342  00000+0  61790-3 0  9992
2 57189  97.6394  75.2913 0011653 249.0161 110.9821 15.07530336 31230
NANOZOND 1 (RS49S)      
1 57190U 23091AA  24021.11199323  .00012832  00000+0  81936-3 0  9990
2 57190  97.6362  75.3988 0010499 255.6086 104.3977 15.08753747 31240
POLYTECH-UNIVERSE 3 (R*)
1 57191U 23091AB  24021.12785784  .00005454  00000+0  37967-3 0  9991
2 57191  97.6366  74.7658 0018480 272.6883  87.2229 15.05742020 31208
UTMN 2 (RS27S)          
1 57203U 23091AP  24021.15271121  .00009321  00000+0  62089-3 0  9993
2 57203  97.6394  75.2617 0012249 249.7766 110.2145 15.07262593 31237
